<?xml version="1.0" encoding="UTF-8"?>
<kml xmlns="http://www.opengis.net/kml/2.2">
  <Document>
    <Placemark>
      <name>Plot A (polygon)</name>
      <ExtendedData><Data name="owner"><value>Demo</value></Data></ExtendedData>
      <Polygon><outerBoundaryIs><LinearRing><coordinates>
        77.5900,12.9700,0 77.6000,12.9700,0 77.6000,12.9800,0 77.5900,12.9800,0 77.5900,12.9700,0
      </coordinates></LinearRing></outerBoundaryIs></Polygon>
    </Placemark>
    <Placemark>
      <name>Road (line)</name>
      <LineString><coordinates>77.5900,12.9700 77.6000,12.9800 77.6100,12.9900</coordinates></LineString>
    </Placemark>
    <Placemark>
      <name>Gate (point)</name>
      <Point><coordinates>77.5950,12.9750</coordinates></Point>
    </Placemark>
    <Placemark>
      <name>Mixed collection (unsupported for measurement)</name>
      <MultiGeometry>
        <Point><coordinates>77.59,12.97</coordinates></Point>
        <LineString><coordinates>77.59,12.97 77.60,12.98</coordinates></LineString>
      </MultiGeometry>
    </Placemark>
    <Placemark><name>No geometry</name></Placemark>
  </Document>
</kml>
